SENTINEL-6              
1 46984U 20086A   24025.57192207 -.00000073  00000+0 -51560-4 0  9995
2 46984  66.0412 149.5603 0007763 270.5081  89.5044 12.80930264148431
